satname,norad_id,inclination_deg,eccentricity,mean_motion_rev_per_day,perigee_km,apogee_km,l1,l2
STARLINK-1403,45701,53.0571,0.0003896,15.06138418,545.3149569337802,550.7118133138692,1 45701U 20035AW  25280.61230793  .00063653  00000+0  42835-2 0  9991,2 45701  53.0571   3.8118 0003896 107.1600 252.9816 15.06138418296076
STARLINK-1407,45703,53.0411,0.00098,15.36699114,449.18097511795713,462.57564512579665,1 45703U 20035AY  25280.84753981  .00106076  00000+0  28825-2 0  9997,2 45703  53.0411 326.8164 0009800 315.7635  44.2583 15.36699114296628
STARLINK-1411,45706,53.0565,0.0001601,15.33554849,464.12073977590353,466.3119815219825,1 45706U 20035BB  25280.50619898  .00162764  00000+0  48525-2 0  9996,2 45706  53.0565 355.2494 0001601  54.2322 305.8827 15.33554849296182
STARLINK-1423,45710,53.0554,0.0001394,15.06412053,546.2092290360579,548.1400059150101,1 45710U 20035BF  25280.57169459  .00018630  00000+0  12659-2 0  9992,2 45710  53.0554   3.9959 0001394  85.1695 274.9454 15.06412053296073
STARLINK-1433,45711,53.0557,0.0001358,15.06410037,546.2403379929556,548.1212543063893,1 45711U 20035BG  25280.55326515  .00012736  00000+0  87211-3 0  9997,2 45711  53.0557   4.0773 0001358  86.2002 273.9143 15.06410037296060
STARLINK-1434,45712,53.0539,0.0001221,15.13269248,525.3949581707557,527.0810065414471,1 45712U 20035BH  25280.57550706  .00024585  00000+0  13783-2 0  9998,2 45712  53.0539   1.4604 0001221 339.9490  20.1454 15.13269248296110
STARLINK-1465,45731,53.0542,0.000131,15.06413988,546.2614720196516,548.0759021096637,1 45731U 20038B   25280.78547704  .00019039  00000+0  12931-2 0  9991,2 45731  53.0542 203.0327 0001310  67.8094 292.3034 15.06413988293144
STARLINK-1471,45735,53.0501,0.0003693,15.39657378,444.60111812956075,449.6422541951606,1 45735U 20038F   25280.35072521  .00019916  00000+0  50587-3 0  9992,2 45735  53.0501 151.0415 0003693 108.4425 251.6980 15.39657378293843
STARLINK-1474,45738,53.0371,0.0005151,15.62848007,375.95413533962073,382.9157859734896,1 45738U 20038J   25280.25607219  .00065143  00000+0  70860-3 0  9991,2 45738  53.0371 113.1504 0005151 177.5648 182.5392 15.62848007294368
STARLINK-1475,45739,53.0507,0.0003619,15.66150303,367.4904034511728,372.3746561768521,1 45739U 20038K   25280.86746515  .00293315  00000+0  27059-2 0  9997,2 45739  53.0507  77.7764 0003619 167.0772 193.0337 15.66150303294929
STARLINK-1480,45741,53.0534,0.0001417,15.06403775,546.2186678799198,548.1813083823563,1 45741U 20038M   25280.50165332  .00002081  00000+0  15856-3 0  9994,2 45741  53.0534 204.3089 0001417  96.5633 263.5517 15.06403775293117
STARLINK-1500,45744,53.0407,0.0005033,15.26354476,483.2661277552734,490.1762940303579,1 45744U 20038Q   25280.47655775  .00028620  00000+0  10954-2 0  9998,2 45744  53.0407 186.7050 0005033 116.3461 243.8054 15.26354476293356
STARLINK-1504,45746,53.0307,0.0005794,15.36481733,452.5628760227537,460.4828798893286,1 45746U 20038S   25280.66669322  .00026338  00000+0  73705-3 0  9992,2 45746  53.0307 152.4364 0005794  94.4381 265.7283 15.36481733293845
STARLINK-1506,45747,53.0506,0.0004876,15.20543783,500.8434381802499,507.55509250621344,1 45747U 20038T   25280.14094715  .00026457  00000+0  12040-2 0  9990,2 45747  53.0506 189.7018 0004876 140.3475 219.7878 15.20543783293285
STARLINK-1464,45751,53.0546,0.0001325,15.06410866,546.2606511421081,548.0958596847931,1 45751U 20038X   25280.76888713  .00016142  00000+0  10998-2 0  9992,2 45751  53.0546 183.1075 0001325 104.0236 256.0900 15.06410866293439
STARLINK-1477,45754,53.0537,0.0001525,15.06397657,546.1626221549486,548.2748556553142,1 45754U 20038AA  25280.12016005  .00006717  00000+0  46945-3 0  9991,2 45754  53.0537 186.0182 0001525  82.4558 277.6604 15.06397657293332
STARLINK-1478,45755,53.0545,0.000115,15.06391121,546.4423527144754,548.0351891417895,1 45755U 20038AB  25280.47032889  .00001620  00000+0  12764-3 0  9998,2 45755  53.0545 184.4493 0001150  95.2576 264.8544 15.06391121293370
STARLINK-1484,45756,53.0156,0.0003889,15.56287305,395.7777718845409,401.0485726085144,1 45756U 20038AC  25280.53079424  .00052143  00000+0  73037-3 0  9998,2 45756  53.0156  98.7477 0003889 155.2914 204.8283 15.56287305294583
STARLINK-1493,45759,53.0535,0.0001487,15.0640605,546.1632190483733,548.2228121950184,1 45759U 20038AF  25280.79099367  .00004671  00000+0  33220-3 0  9990,2 45759  53.0535 183.0089 0001487  87.1527 272.9632 15.06406050293420
STARLINK-1494,45760,53.0551,0.0001183,15.46518791,426.11401986650253,427.72409612982574,1 45760U 20038AG  25280.42230064  .00476637  00000+0  88845-2 0  9990,2 45760  53.0551 177.2164 0001183 106.8518 253.2618 15.46518791293483
STARLINK-1502,45764,53.0547,0.0001398,15.06399597,546.2446291744373,548.180956976581,1 45764U 20038AL  25280.42609866  .00011463  00000+0  78718-3 0  9995,2 45764  53.0547 184.6450 0001398  94.6582 265.4567 15.06399597293389
STARLINK-1470,45772,53.0498,0.0004247,15.15972263,515.0996289668165,520.957231883418,1 45772U 20038AU  25280.38146661  .00026969  00000+0  13991-2 0  9996,2 45772  53.0498 159.0771 0004247 133.5257 226.6090 15.15972263293739
STARLINK-1482,45773,53.0532,0.0001499,15.06394927,546.1889939167759,548.2652180757541,1 45773U 20038AV  25280.65646499  .00002031  00000+0  15525-3 0  9991,2 45773  53.0532 163.6115 0001499  95.2544 264.8616 15.06394927293699
STARLINK-1485,45774,53.0431,0.0002139,15.86821711,309.76930032236487,312.63099875493845,1 45774U 20038AW  25280.50875398  .00369044  00000+0  13538-2 0  9999,2 45774  53.0431 107.5505 0002139 153.1336 206.9799 15.86821711294462
STARLINK-1496,45780,53.0528,0.0001152,15.06408428,546.3879302743599,547.9835246307639,1 45780U 20038BC  25280.68963247  .00012446  00000+0  85274-3 0  9994,2 45780  53.0528 163.4615 0001152  95.4801 264.6320 15.06408428293680
STARLINK-1497,45781,53.0406,0.0012775,15.46575399,418.0597568387948,435.4462507985518,1 45781U 20038BD  25280.83985997  .00077430  00000+0  15203-2 0  9996,2 45781  53.0406 115.5506 0012775 131.6565 228.5537 15.46575399294389
STARLINK-1510,45784,53.0346,0.0009027,15.60884789,378.99486727656677,391.2052154310268,1 45784U 20038BG  25280.51388881  .00238487  00000+0  27208-2 0  9992,2 45784  53.0346  95.9452 0009027 103.0068 257.1953 15.60884789294633
STARLINK-1513,45786,53.0519,0.000162,15.06398964,546.0928261501176,548.3366401116527,1 45786U 20038BJ  25280.38738109 -.00001821  00000+0 -10337-3 0  9999,2 45786  53.0519 164.8216 0001620 100.2668 259.8504 15.06398964293654
